start=new Date('2022-12-14T00:00:00.000Z').valueOf();
sats=[{"EPHEMERIS_TYPE":"0","RCS_SIZE":"LARGE","CENTER_NAME":"EARTH","INCLINATION":"53.0520","TLE_LINE2":"2 47871  53.0520 167.3293 0001895  52.4237 307.6924 15.06398022 97723","APOAPSIS":"548.532","FILE":"3697712","REF_FRAME":"TEME","MEAN_MOTION_DOT":"-0.00000185","DECAY_DATE":null,"LAUNCH_DATE":"2021-03-14","MEAN_MOTION_DDOT":"0.0000000000000","MEAN_MOTION":"15.06398022","PERIAPSIS":"545.907","ELEMENT_SET_NO":"999","OBJECT_TYPE":"PAYLOAD","MEAN_ANOMALY":"307.6924","CLASSIFICATION_TYPE":"U","TIME_SYSTEM":"UTC","ARG_OF_PERICENTER":"52.4237","OBJECT_ID":"2021-021M","REV_AT_EPOCH":"9772","COUNTRY_CODE":"US","SITE":"AFETR","GP_ID":"220291353","NORAD_CAT_ID":"47871","BSTAR":"0.00000648690000","MEAN_ELEMENT_THEORY":"SGP4","ECCENTRICITY":"0.00018950","EPOCH":"2022-12-13T19:11:39.828192","OBJECT_NAME":"STARLINK-2327","SEMIMAJOR_AXIS":"6925.355","TLE_LINE1":"1 47871U 21021M   22347.79976653 -.00000185  00000-0  64869-5 0  9996","PERIOD":"95.592","RA_OF_ASC_NODE":"167.3293"},{"TLE_LINE2":"2 47872  53.0529  42.7990 0008455 279.7323  80.2739 15.71458875 99929","INCLINATION":"53.0529","CENTER_NAME":"EARTH","RCS_SIZE":"LARGE","EPHEMERIS_TYPE":"0","DECAY_DATE":null,"MEAN_MOTION_DOT":"-0.00005841","REF_FRAME":"TEME","FILE":"3697190","APOAPSIS":"360.421","LAUNCH_DATE":"2021-03-14","MEAN_ANOMALY":"80.2739","CLASSIFICATION_TYPE":"U","ELEMENT_SET_NO":"999","OBJECT_TYPE":"PAYLOAD","PERIAPSIS":"349.036","MEAN_MOTION_DDOT":"0.0000000000000","MEAN_MOTION":"15.71458875","NORAD_CAT_ID":"47872","GP_ID":"220277202","SITE":"AFETR","COUNTRY_CODE":"US","REV_AT_EPOCH":"9992","OBJECT_ID":"2021-021N","ARG_OF_PERICENTER":"279.7323","TIME_SYSTEM":"UTC","MEAN_ELEMENT_THEORY":"SGP4","BSTAR":"-0.00004001900000","SEMIMAJOR_AXIS":"6732.864","OBJECT_NAME":"STARLINK-2328","EPOCH":"2022-12-13T09:38:22.295616","ECCENTRICITY":"0.00084550","RA_OF_ASC_NODE":"42.7990","PERIOD":"91.635","TLE_LINE1":"1 47872U 21021N   22347.40164694 -.00005841  00000-0 -40019-4 0  9994"},{"ELEMENT_SET_NO":"999","OBJECT_TYPE":"PAYLOAD","MEAN_ANOMALY":"317.4516","CLASSIFICATION_TYPE":"U","MEAN_MOTION":"15.06403457","MEAN_MOTION_DDOT":"0.0000000000000","PERIAPSIS":"545.984","LAUNCH_DATE":"2021-03-14","DECAY_DATE":null,"MEAN_MOTION_DOT":"0.00003825","REF_FRAME":"TEME","APOAPSIS":"548.422","FILE":"3697712","TLE_LINE2":"2 47873  53.0538 167.4068 0001760  42.6609 317.4516 15.06403457 97714","RCS_SIZE":"LARGE","CENTER_NAME":"EARTH","EPHEMERIS_TYPE":"0","INCLINATION":"53.0538","TLE_LINE1":"1 47873U 21021P   22347.78133555  .00003825  00000-0  27549-3 0  9998","RA_OF_ASC_NODE":"167.4068","PERIOD":"95.592","OBJECT_NAME":"STARLINK-2329","SEMIMAJOR_AXIS":"6925.338","ECCENTRICITY":"0.00017600","EPOCH":"2022-12-13T18:45:07.391520","BSTAR":"0.00027549000000","MEAN_ELEMENT_THEORY":"SGP4","SITE":"AFETR","GP_ID":"220291856","NORAD_CAT_ID":"47873","OBJECT_ID":"2021-021P","ARG_OF_PERICENTER":"42.6609","TIME_SYSTEM":"UTC","COUNTRY_CODE":"US","REV_AT_EPOCH":"9771"},{"ECCENTRICITY":"0.00016950","EPOCH":"2022-12-13T18:59:02.086368","OBJECT_NAME":"STARLINK-2330","SEMIMAJOR_AXIS":"6925.344","TLE_LINE1":"1 47874U 21021Q   22347.79099637  .00001784  00000-0  13860-3 0  9995","RA_OF_ASC_NODE":"122.3832","PERIOD":"95.592","OBJECT_ID":"2021-021Q","ARG_OF_PERICENTER":"46.4515","TIME_SYSTEM":"UTC","COUNTRY_CODE":"US","REV_AT_EPOCH":"9834","SITE":"AFETR","NORAD_CAT_ID":"47874","GP_ID":"220291859","BSTAR":"0.00013860000000","MEAN_ELEMENT_THEORY":"SGP4","LAUNCH_DATE":"2021-03-14","MEAN_MOTION_DDOT":"0.0000000000000","MEAN_MOTION":"15.06401394","PERIAPSIS":"546.035","OBJECT_TYPE":"PAYLOAD","ELEMENT_SET_NO":"999","MEAN_ANOMALY":"313.6614","CLASSIFICATION_TYPE":"U","RCS_SIZE":"LARGE","CENTER_NAME":"EARTH","EPHEMERIS_TYPE":"0","INCLINATION":"53.0515","TLE_LINE2":"2 47874  53.0515 122.3832 0001695  46.4515 313.6614 15.06401394 98349","APOAPSIS":"548.383","FILE":"3697712","DECAY_DATE":null,"MEAN_MOTION_DOT":"0.00001784","REF_FRAME":"TEME"},{"DECAY_DATE":null,"MEAN_MOTION_DOT":"0.00001643","REF_FRAME":"TEME","APOAPSIS":"548.305","FILE":"3697820","TLE_LINE2":"2 47875  53.0535 178.3472 0001567  71.9093 288.2067 15.06397952 97549","CENTER_NAME":"EARTH","RCS_SIZE":"LARGE","EPHEMERIS_TYPE":"0","INCLINATION":"53.0535","ELEMENT_SET_NO":"999","OBJECT_TYPE":"PAYLOAD","MEAN_ANOMALY":"288.2067","CLASSIFICATION_TYPE":"U","MEAN_MOTION_DDOT":"0.0000000000000","MEAN_MOTION":"15.06397952","PERIAPSIS":"546.135","LAUNCH_DATE":"2021-03-14","BSTAR":"0.00012916000000","MEAN_ELEMENT_THEORY":"SGP4","SITE":"AFETR","GP_ID":"220294640","NORAD_CAT_ID":"47875","OBJECT_ID":"2021-021R","ARG_OF_PERICENTER":"71.9093","TIME_SYSTEM":"UTC","COUNTRY_CODE":"US","REV_AT_EPOCH":"9754","TLE_LINE1":"1 47875U 21021R   22347.57402756  .00001643  00000-0  12916-3 0  9997","PERIOD":"95.592","RA_OF_ASC_NODE":"178.3472","OBJECT_NAME":"STARLINK-2331","SEMIMAJOR_AXIS":"6925.355","ECCENTRICITY":"0.00015670","EPOCH":"2022-12-13T13:46:35.981184"},{"LAUNCH_DATE":"2021-03-14","PERIAPSIS":"546.138","MEAN_MOTION_DDOT":"0.0000000000000","MEAN_MOTION":"15.06404199","CLASSIFICATION_TYPE":"U","MEAN_ANOMALY":"288.8765","ELEMENT_SET_NO":"999","OBJECT_TYPE":"PAYLOAD","INCLINATION":"53.0546","EPHEMERIS_TYPE":"0","CENTER_NAME":"EARTH","RCS_SIZE":"LARGE","TLE_LINE2":"2 47876  53.0546 178.6906 0001534  71.2390 288.8765 15.06404199 98010","FILE":"3697190","APOAPSIS":"548.263","MEAN_MOTION_DOT":"0.00001324","REF_FRAME":"TEME","DECAY_DATE":null,"EPOCH":"2022-12-13T11:55:05.961792","ECCENTRICITY":"0.00015340","SEMIMAJOR_AXIS":"6925.336","OBJECT_NAME":"STARLINK-2332","RA_OF_ASC_NODE":"178.6906","PERIOD":"95.592","TLE_LINE1":"1 47876U 21021S   22347.49659678  .00001324  00000-0  10778-3 0  9996","REV_AT_EPOCH":"9801","COUNTRY_CODE":"US","TIME_SYSTEM":"UTC","ARG_OF_PERICENTER":"71.2390","OBJECT_ID":"2021-021S","NORAD_CAT_ID":"47876","GP_ID":"220277702","SITE":"AFETR","MEAN_ELEMENT_THEORY":"SGP4","BSTAR":"0.00010778000000"},{"COUNTRY_CODE":"US","REV_AT_EPOCH":"9801","OBJECT_ID":"2021-021T","ARG_OF_PERICENTER":"67.2539","TIME_SYSTEM":"UTC","GP_ID":"220275963","NORAD_CAT_ID":"47877","SITE":"AFETR","MEAN_ELEMENT_THEORY":"SGP4","BSTAR":"0.00002290300000","EPOCH":"2022-12-13T13:51:52.457472","ECCENTRICITY":"0.00016000","SEMIMAJOR_AXIS":"6925.379","OBJECT_NAME":"STARLINK-2333","RA_OF_ASC_NODE":"178.3366","PERIOD":"95.593","TLE_LINE1":"1 47877U 21021T   22347.57769048  .00000060  00000-0  22903-4 0  9999","INCLINATION":"53.0537","RCS_SIZE":"LARGE","CENTER_NAME":"EARTH","EPHEMERIS_TYPE":"0","TLE_LINE2":"2 47877  53.0537 178.3366 0001600  67.2539 292.8619 15.06389975 98019","FILE":"3697190","APOAPSIS":"548.352","DECAY_DATE":null,"MEAN_MOTION_DOT":"0.00000060","REF_FRAME":"TEME","LAUNCH_DATE":"2021-03-14","PERIAPSIS":"546.136","MEAN_MOTION":"15.06389975","MEAN_MOTION_DDOT":"0.0000000000000","CLASSIFICATION_TYPE":"U","MEAN_ANOMALY":"292.8619","OBJECT_TYPE":"PAYLOAD","ELEMENT_SET_NO":"999"},{"LAUNCH_DATE":"2021-03-14","PERIAPSIS":"546.048","MEAN_MOTION_DDOT":"0.0000000000000","MEAN_MOTION":"15.06380852","CLASSIFICATION_TYPE":"U","MEAN_ANOMALY":"298.6513","OBJECT_TYPE":"PAYLOAD","ELEMENT_SET_NO":"999","INCLINATION":"53.0538","CENTER_NAME":"EARTH","RCS_SIZE":"LARGE","EPHEMERIS_TYPE":"0","TLE_LINE2":"2 47878  53.0538 177.0901 0001768  61.4653 298.6513 15.06380852 97853","FILE":"3698003","APOAPSIS":"548.497","DECAY_DATE":null,"MEAN_MOTION_DOT":"0.00005834","REF_FRAME":"TEME","EPOCH":"2022-12-13T20:29:57.582816","ECCENTRICITY":"0.00017680","SEMIMAJOR_AXIS":"6925.407","OBJECT_NAME":"STARLINK-2335","PERIOD":"95.593","RA_OF_ASC_NODE":"177.0901","TLE_LINE1":"1 47878U 21021U   22347.85413869  .00005834  00000-0  41047-3 0  9991","COUNTRY_CODE":"US","REV_AT_EPOCH":"9785","OBJECT_ID":"2021-021U","ARG_OF_PERICENTER":"61.4653","TIME_SYSTEM":"UTC","GP_ID":"220318720","NORAD_CAT_ID":"47878","SITE":"AFETR","MEAN_ELEMENT_THEORY":"SGP4","BSTAR":"0.00041047000000"},{"TLE_LINE2":"2 47879  53.0522 193.0002 0001792  69.7518 290.3664 15.06403681 97341","INCLINATION":"53.0522","EPHEMERIS_TYPE":"0","CENTER_NAME":"EARTH","RCS_SIZE":"LARGE","MEAN_MOTION_DOT":"0.00001354","REF_FRAME":"TEME","DECAY_DATE":null,"FILE":"3697820","APOAPSIS":"548.443","LAUNCH_DATE":"2021-03-14","CLASSIFICATION_TYPE":"U","MEAN_ANOMALY":"290.3664","ELEMENT_SET_NO":"999","OBJECT_TYPE":"PAYLOAD","PERIAPSIS":"545.961","MEAN_MOTION_DDOT":"0.0000000000000","MEAN_MOTION":"15.06403681","NORAD_CAT_ID":"47879","GP_ID":"220294144","SITE":"AFETR","REV_AT_EPOCH":"9734","COUNTRY_CODE":"US","ARG_OF_PERICENTER":"69.7518","TIME_SYSTEM":"UTC","OBJECT_ID":"2021-021V","MEAN_ELEMENT_THEORY":"SGP4","BSTAR":"0.00010976000000","SEMIMAJOR_AXIS":"6925.337","OBJECT_NAME":"STARLINK-2336","EPOCH":"2022-12-13T15:38:40.986528","ECCENTRICITY":"0.00017920","PERIOD":"95.592","RA_OF_ASC_NODE":"193.0002","TLE_LINE1":"1 47879U 21021V   22347.65186327  .00001354  00000-0  10976-3 0  9996"},{"BSTAR":"0.00006179300000","MEAN_ELEMENT_THEORY":"SGP4","OBJECT_ID":"2021-021W","TIME_SYSTEM":"UTC","ARG_OF_PERICENTER":"60.4412","COUNTRY_CODE":"US","REV_AT_EPOCH":"9787","SITE":"AFETR","NORAD_CAT_ID":"47880","GP_ID":"220277203","TLE_LINE1":"1 47880U 21021W   22347.55833589  .00000639  00000-0  61793-4 0  9995","RA_OF_ASC_NODE":"188.4206","PERIOD":"95.593","ECCENTRICITY":"0.00018680","EPOCH":"2022-12-13T13:24:00.220896","OBJECT_NAME":"STARLINK-2337","SEMIMAJOR_AXIS":"6925.384","APOAPSIS":"548.542","FILE":"3697190","DECAY_DATE":null,"MEAN_MOTION_DOT":"0.00000639","REF_FRAME":"TEME","CENTER_NAME":"EARTH","RCS_SIZE":"LARGE","EPHEMERIS_TYPE":"0","INCLINATION":"53.0544","TLE_LINE2":"2 47880  53.0544 188.4206 0001868  60.4412 299.6763 15.06388522 97872","MEAN_MOTION_DDOT":"0.0000000000000","MEAN_MOTION":"15.06388522","PERIAPSIS":"545.955","ELEMENT_SET_NO":"999","OBJECT_TYPE":"PAYLOAD","MEAN_ANOMALY":"299.6763","CLASSIFICATION_TYPE":"U","LAUNCH_DATE":"2021-03-14"}];
